#aV2007 10 18  0  0   .00000000      96 DD+AD WGS84 FIT  NGA
## 1449 345600.00000000   900.00000000 54391  .0000000000000
+   31     1  2  3  4  5  6  7  8  9 10 11 12 13 14 16 17 18
+         19 20 21 22 23 24 25 26 27 28 29 30 31 32  0  0  0
+          0  0  0  0  0  0  0  0  0  0  0  0  0  0  0  0  0
+          0  0  0  0  0  0  0  0  0  0  0  0  0  0  0  0  0
+          0  0  0  0  0  0  0  0  0  0  0  0  0  0  0  0  0
++         0  0  0  0  0  0  0  0  0  0  0  0  0  0  0  0  0
++         0  0  0  0  0  0  0  0  0  0  0  0  0  0  0  0  0
++         0  0  0  0  0  0  0  0  0  0  0  0  0  0  0  0  0
++         0  0  0  0  0  0  0  0  0  0  0  0  0  0  0  0  0
++         0  0  0  0  0  0  0  0  0  0  0  0  0  0  0  0  0
%c cc cc ccc ccc cccc cccc cccc cccc ccccc ccccc ccccc ccccc
%c cc cc ccc ccc cccc cccc cccc cccc ccccc ccccc ccccc ccccc
%f  0.0000000  0.000000000  0.00000000000  0.000000000000000
%f  0.0000000  0.000000000  0.00000000000  0.000000000000000
%i    0    0    0    0      0      0      0      0         0
%i    0    0    0    0      0      0      0      0         0
/*      NGA, ST. LOUIS,MO.                                  
/*   EPHEMERIS COMPUTED FROM  3 DAYS OF DATA                
/* CCCCCCCCCCCCCCCCCCCCCCCCCCCCCCCCCCCCCCCCCCCCCCCCCCCCCCCCC
/* CCCCCCCCCCCCCCCCCCCCCCCCCCCCCCCCCCCCCCCCCCCCCCCCCCCCCCCCC
*  2007 10 18 21 30   .00000000                                                 
P  1  13230.974815  15562.739098  17232.991692    160.466132                    
V  1 -20828.498088  -4901.172428  20597.376825       .028455                    
P  2 -13079.485744 -21848.722437  -8278.087060    144.632726                    
V  2   -389.929938 -10553.169322  28833.643309       .027914                    
P  3  21726.116756  11167.448226 -11068.045619    131.547026                    
V  3 -13937.318859   1266.258061 -26297.890602       .055185                    
P  4  -5212.329349 -25658.137073   2997.942356    -15.181608                    
V  4   4579.028785   2777.167772  31320.198964      -.037057                    
P  5 -20095.654828  13911.813232   9958.363859    478.952171                    
V  5   5517.892259 -12318.182683  27767.739979       .279768                    
P  6 -18264.822116   9154.790526 -16803.949083    234.433150                    
V  6 -20938.565507  -6349.912355  19063.738272      -.058568                    
P  7 -16287.109982  10599.267122 -17788.813425    -47.265273                    
V  7 -22682.502375  -5830.014456  16938.927810       .138124                    
P  8   1642.743858 -23886.248849 -11078.576861   -126.956127                    
V  8   5584.064790  13075.301017 -28076.663593      -.013541                    
P  9 -15911.311384  -2840.537085  20502.749480     92.686191                    
V  9  -8200.601954 -26139.583515  -9522.127997       .016623                    
P 10 -11945.370339  -9412.301400 -21904.167159   -112.491174                    
V 10  19273.825806 -19616.701714  -1777.044677      -.134342                    
P 11  17485.823724  -1000.716133  19901.982622     25.053670                    
V 11  10707.249229  23494.177601  -7858.833153       .004655                    
P 12 -20928.711431   7528.434711  14560.014955   -345.307514                    
V 12  11008.919858 -14834.729464  23705.429216      -.013061                    
P 13  17328.275547  -7786.431221 -18657.268468    214.801782                    
V 13  22317.089459   7102.973049  17885.021745       .027885                    
P 14   1178.856010  15163.187269  21880.289910   -325.911072                    
V 14 -26667.173887  -6573.493338   5922.554782       .024622                    
P 16   7210.754190  13889.948161 -21367.924454    120.316537                    
V 16 -19398.033720  19238.071183   6099.266502       .020282                    
P 17    462.207939 -15461.519783  21619.400690     51.362260                    
V 17  26699.178278   6167.578440   3705.106246      -.011368                    
P 18 -17343.189714  19715.032675   2565.271818   -230.542191                    
V 18  -4599.803214   -248.500779 -31537.674029       .020486                    
P 19  25593.943790   7384.925243    526.392699      1.997955                    
V 19   -275.795743   2830.893556 -31581.713830       .022477                    
P 20  21158.107494 -10720.460106  11814.804367    127.687202                    
V 20  -8227.654151  13053.530338  26388.664614      -.006200                    
P 21  -8949.530942  17040.679043 -17896.618194     77.446181                    
V 21  -8340.700766 -21895.767022 -17126.614465      -.003477                    
P 22  -7340.919815  21330.175552  14149.648705    200.851255                    
V 22 -14388.804985  10653.217129 -23841.037317       .011080                    
P 23  24833.437672  -1026.157417  -9755.232536    301.142237                    
V 23  11411.732638   4764.540755  28529.521384       .035842                    
P 24 -14082.597241   6279.482044 -21451.274917     39.343866                    
V 24  -6870.424431 -26832.623901  -3028.572028       .029930                    
P 25  10462.561658 -12458.217670 -20662.104483    464.023875                    
V 25  11018.949236  24701.651342  -9007.595578       .073100                    
P 26 -25041.957235  -9234.208714  -3492.456054     66.220598                    
V 26   3986.299987   -214.190483 -31697.286141       .127756                    
P 27   6031.067627 -18371.868069 -17461.498607    142.113043                    
V 27   9956.676290  21423.620574 -18625.211993       .023838                    
P 28   9682.179152 -21676.429901  11887.806401     -8.821821                    
V 28  12076.850218  -8725.071895 -26863.204433      -.005901                    
P 29 -23584.288072 -10354.342515  -7095.303696      6.059020                    
V 29   9257.421272    625.777760 -30432.147260       .000167                    
P 30 -19176.503176  17784.828327   3969.615190     49.433671                    
V 30   1058.975332  -6319.156393  30966.198535       .012553                    
P 31   7378.628116  25467.463468    681.651862      5.615246                    
V 31  -2824.406201    216.045584  31872.335445      -.013005                    
P 32   2376.923875  16982.162381  20789.077154    105.332431                    
V 32 -19214.435264  16433.521937 -11351.986074       .148130                    
EOF
